[
    {
        "Altitude(m)": 565929.0524374109,
        "Argument of Periapsis(deg)": -0.015068773855314936,
        "Eccentricity": 0.0,
        "Inclination(deg)": 97.0,
        "Latitude(deg)": 5.004429238530559,
        "Longitude(deg)": -12.165672232072621,
        "Mean Anomaly(deg)": 5.147395512791699,
        "RAAN(deg)": 90.00396470241235,
        "Satellite Name": "Starlink Shell 3 1813",
        "Satellite Number": 1813,
        "Semi-Major Axis(m)": 6938478.169268562,
        "Time(s)": 380
    },
    {
        "Altitude(m)": 565884.7442196566,
        "Argument of Periapsis(deg)": -0.015465320535717962,
        "Eccentricity": 0.0,
        "Inclination(deg)": 97.0,
        "Latitude(deg)": 5.628840026041158,
        "Longitude(deg)": -12.284264607541607,
        "Mean Anomaly(deg)": 5.7728717104967195,
        "RAAN(deg)": 90.00406903668636,
        "Satellite Name": "Starlink Shell 3 1813",
        "Satellite Number": 1813,
        "Semi-Major Axis(m)": 6938478.169268562,
        "Time(s)": 390
    },
    {
        "Altitude(m)": 565844.7372331318,
        "Argument of Periapsis(deg)": -0.015861867216120987,
        "Eccentricity": 0.0,
        "Inclination(deg)": 97.0,
        "Latitude(deg)": 6.253238361801503,
        "Longitude(deg)": -12.403022269887543,
        "Mean Anomaly(deg)": 6.398347908201727,
        "RAAN(deg)": 90.00417337096036,
        "Satellite Name": "Starlink Shell 3 1813",
        "Satellite Number": 1813,
        "Semi-Major Axis(m)": 6938478.169268562,
        "Time(s)": 400
    },
    {
        "Altitude(m)": 565809.0217137977,
        "Argument of Periapsis(deg)": -0.01625841389652401,
        "Eccentricity": 0.0,
        "Inclination(deg)": 97.0,
        "Latitude(deg)": 6.877621223463806,
        "Longitude(deg)": -12.521963552880615,
        "Mean Anomaly(deg)": 7.023824105906773,
        "RAAN(deg)": 90.00427770523437,
        "Satellite Name": "Starlink Shell 3 1813",
        "Satellite Number": 1813,
        "Semi-Major Axis(m)": 6938478.169268562,
        "Time(s)": 410
    },
    {
        "Altitude(m)": 565777.5858540749,
        "Argument of Periapsis(deg)": -0.016654960576927034,
        "Eccentricity": 0.0,
        "Inclination(deg)": 97.0,
        "Latitude(deg)": 7.501985585310017,
        "Longitude(deg)": -12.641107469453448,
        "Mean Anomaly(deg)": 7.649300303611832,
        "RAAN(deg)": 90.00438203950837,
        "Satellite Name": "Starlink Shell 3 1813",
        "Satellite Number": 1813,
        "Semi-Major Axis(m)": 6938478.169268562,
        "Time(s)": 420
    },
    {
        "Altitude(m)": 565750.4158122072,
        "Argument of Periapsis(deg)": -0.01705150725733006,
        "Eccentricity": 0.0,
        "Inclination(deg)": 97.0,
        "Latitude(deg)": 8.12632841804259,
        "Longitude(deg)": -12.760473225983143,
        "Mean Anomaly(deg)": 8.27477650131689,
        "RAAN(deg)": 90.0044863737824,
        "Satellite Name": "Starlink Shell 3 1813",
        "Satellite Number": 1813,
        "Semi-Major Axis(m)": 6938478.169268562,
        "Time(s)": 430
    },
    {
        "Altitude(m)": 565727.4957226455,
        "Argument of Periapsis(deg)": -0.017448053937733084,
        "Eccentricity": 0.0,
        "Inclination(deg)": 97.0,
        "Latitude(deg)": 8.7506466885456,
        "Longitude(deg)": -12.880079736964742,
        "Mean Anomaly(deg)": 8.900252699021948,
        "RAAN(deg)": 90.0045907080564,
        "Satellite Name": "Starlink Shell 3 1813",
        "Satellite Number": 1813,
        "Semi-Major Axis(m)": 6938478.169268562,
        "Time(s)": 440
    },
    {
        "Altitude(m)": 565708.807707439,
        "Argument of Periapsis(deg)": -0.017844600618136107,
        "Eccentricity": 0.0,
        "Inclination(deg)": 97.0,
        "Latitude(deg)": 9.374937359610717,
        "Longitude(deg)": -12.999946652989802,
        "Mean Anomaly(deg)": 9.525728896726957,
        "RAAN(deg)": 90.0046950423304,
        "Satellite Name": "Starlink Shell 3 1813",
        "Satellite Number": 1813,
        "Semi-Major Axis(m)": 6938478.169268562,
        "Time(s)": 450
    },
    {
        "Altitude(m)": 565694.3318886732,
        "Argument of Periapsis(deg)": -0.018241147298539134,
        "Eccentricity": 0.0,
        "Inclination(deg)": 97.0,
        "Latitude(deg)": 9.999197389630476,
        "Longitude(deg)": -13.120093876325729,
        "Mean Anomaly(deg)": 10.151205094432067,
        "RAAN(deg)": 90.00479937660441,
        "Satellite Name": "Starlink Shell 3 1813",
        "Satellite Number": 1813,
        "Semi-Major Axis(m)": 6938478.169268562,
        "Time(s)": 460
    },
    {
        "Altitude(m)": 565684.0464018726,
        "Argument of Periapsis(deg)": -0.018637693978942157,
        "Eccentricity": 0.0,
        "Inclination(deg)": 97.0,
        "Latitude(deg)": 10.623423732251918,
        "Longitude(deg)": -13.240541077013242,
        "Mean Anomaly(deg)": 10.776681292137074,
        "RAAN(deg)": 90.00490371087842,
        "Satellite Name": "Starlink Shell 3 1813",
        "Satellite Number": 1813,
        "Semi-Major Axis(m)": 6938478.169268562,
        "Time(s)": 470
    },
    {
        "Altitude(m)": 565677.9274104659,
        "Argument of Periapsis(deg)": -0.019034240659345183,
        "Eccentricity": 0.0,
        "Inclination(deg)": 97.0,
        "Latitude(deg)": 11.247613335986598,
        "Longitude(deg)": -13.361308722400288,
        "Mean Anomaly(deg)": 11.402157489842082,
        "RAAN(deg)": 90.00500804515244,
        "Satellite Name": "Starlink Shell 3 1813",
        "Satellite Number": 1813,
        "Semi-Major Axis(m)": 6938478.169268562,
        "Time(s)": 480
    },
    {
        "Altitude(m)": 565675.9491211734,
        "Argument of Periapsis(deg)": -0.019430787339748207,
        "Eccentricity": 0.0,
        "Inclination(deg)": 97.0,
        "Latitude(deg)": 11.87176314377658,
        "Longitude(deg)": -13.482417594413684,
        "Mean Anomaly(deg)": 12.027633687547178,
        "RAAN(deg)": 90.00511237942644,
        "Satellite Name": "Starlink Shell 3 1813",
        "Satellite Number": 1813,
        "Semi-Major Axis(m)": 6938478.169268562,
        "Time(s)": 490
    },
    {
        "Altitude(m)": 565678.08380042,
        "Argument of Periapsis(deg)": -0.019827334020151237,
        "Eccentricity": 0.0,
        "Inclination(deg)": 97.0,
        "Latitude(deg)": 12.495870092511208,
        "Longitude(deg)": -13.603888307491943,
        "Mean Anomaly(deg)": 12.6531098852522,
        "RAAN(deg)": 90.00521671370043,
        "Satellite Name": "Starlink Shell 3 1813",
        "Satellite Number": 1813,
        "Semi-Major Axis(m)": 6938478.169268562,
        "Time(s)": 500
    },
    {
        "Altitude(m)": 565684.3017917073,
        "Argument of Periapsis(deg)": -0.020223880700554257,
        "Eccentricity": 0.0,
        "Inclination(deg)": 97.0,
        "Latitude(deg)": 13.119931112489152,
        "Longitude(deg)": -13.725742340103865,
        "Mean Anomaly(deg)": 13.278586082957208,
        "RAAN(deg)": 90.00532104797446,
        "Satellite Name": "Starlink Shell 3 1813",
        "Satellite Number": 1813,
        "Semi-Major Axis(m)": 6938478.169268562,
        "Time(s)": 510
    },
    {
        "Altitude(m)": 565694.5715339566,
        "Argument of Periapsis(deg)": -0.020620427380957283,
        "Eccentricity": 0.0,
        "Inclination(deg)": 97.0,
        "Latitude(deg)": 13.74394312682533,
        "Longitude(deg)": -13.84800155416214,
        "Mean Anomaly(deg)": 13.904062280662316,
        "RAAN(deg)": 90.00542538224846,
        "Satellite Name": "Starlink Shell 3 1813",
        "Satellite Number": 1813,
        "Semi-Major Axis(m)": 6938478.169268562,
        "Time(s)": 520
    },
    {
        "Altitude(m)": 565708.8595807814,
        "Argument of Periapsis(deg)": -0.021016974061360306,
        "Eccentricity": 0.0,
        "Inclination(deg)": 97.0,
        "Latitude(deg)": 14.36790305079685,
        "Longitude(deg)": -13.970687715262287,
        "Mean Anomaly(deg)": 14.529538478367312,
        "RAAN(deg)": 90.00552971652247,
        "Satellite Name": "Starlink Shell 3 1813",
        "Satellite Number": 1813,
        "Semi-Major Axis(m)": 6938478.169268562,
        "Time(s)": 530
    },
    {
        "Altitude(m)": 565727.1306207164,
        "Argument of Periapsis(deg)": -0.021413520741763333,
        "Eccentricity": 0.0,
        "Inclination(deg)": 97.0,
        "Latitude(deg)": 14.991807791122126,
        "Longitude(deg)": -14.093823526680813,
        "Mean Anomaly(deg)": 15.15501467607242,
        "RAAN(deg)": 90.00563405079647,
        "Satellite Name": "Starlink Shell 3 1813",
        "Satellite Number": 1813,
        "Semi-Major Axis(m)": 6938478.169268562,
        "Time(s)": 540
    },
    {
        "Altitude(m)": 565749.347498364,
        "Argument of Periapsis(deg)": -0.021810067422166356,
        "Eccentricity": 0.0,
        "Inclination(deg)": 97.0,
        "Latitude(deg)": 15.615654245171518,
        "Longitude(deg)": -14.217432151450678,
        "Mean Anomaly(deg)": 15.78049087377743,
        "RAAN(deg)": 90.0057383850705,
        "Satellite Name": "Starlink Shell 3 1813",
        "Satellite Number": 1813,
        "Semi-Major Axis(m)": 6938478.169268562,
        "Time(s)": 550
    },
    {
        "Altitude(m)": 565775.4712364678,
        "Argument of Periapsis(deg)": -0.022206614102569383,
        "Eccentricity": 0.0,
        "Inclination(deg)": 97.0,
        "Latitude(deg)": 16.23943930010511,
        "Longitude(deg)": -14.341536735454754,
        "Mean Anomaly(deg)": 16.40596707148245,
        "RAAN(deg)": 90.0058427193445,
        "Satellite Name": "Starlink Shell 3 1813",
        "Satellite Number": 1813,
        "Semi-Major Axis(m)": 6938478.169268562,
        "Time(s)": 560
    }
]